{
  "type": "FeatureCollection",
  "features": [
    {
      "type": "Feature",
      "properties": {
        "norad_id": 33860,
        "name": "IRIDIUM 33 DEB",
        "group": "iridium-33-debris",
        "lat": 6.173741126876122,
        "lon": -149.203688330605,
        "alt_km": 677.4382382794711,
        "timestamp": "2025-12-03T19:33:07.362155+00:00",
        "meta_object_name": "IRIDIUM 33 DEB",
        "meta_object_id": "1997-051AD",
        "meta_epoch": "2025-12-03T10:38:45.202272",
        "meta_mean_motion": 14.67161247,
        "meta_eccentricity": 0.0008596,
        "meta_inclination": 86.385,
        "meta_ra_of_asc_node": 31.3522,
        "meta_arg_of_pericenter": 28.3403,
        "meta_mean_anomaly": 346.5569,
        "meta_ephemeris_type": 0,
        "meta_classification_type": "U",
        "meta_norad_cat_id": 33860,
        "meta_element_set_no": 999,
        "meta_rev_at_epoch": 88586,
        "meta_bstar": 0.001768,
        "meta_mean_motion_dot": 9.972e-05,
        "meta_mean_motion_ddot": 0,
        "tle_line1": "1 33860U 97051AD  25337.44357873  .00009972  00000+0  17680-2 0  9993",
        "tle_line2": "2 33860  86.3850  31.3522 0008596  28.3403 346.5569 14.67161247885868"
      },
      "geometry": {
        "type": "Point",
        "coordinates": [
          -149.203688330605,
          6.173741126876122
        ]
      }
    },
    {
      "type": "Feature",
      "properties": {
        "norad_id": 33862,
        "name": "IRIDIUM 33 DEB",
        "group": "iridium-33-debris",
        "lat": 37.35890965434482,
        "lon": -141.28193498897195,
        "alt_km": 633.2552048525313,
        "timestamp": "2025-12-03T19:33:07.362166+00:00",
        "meta_object_name": "IRIDIUM 33 DEB",
        "meta_object_id": "1997-051AF",
        "meta_epoch": "2025-12-03T10:47:22.331328",
        "meta_mean_motion": 14.69215841,
        "meta_eccentricity": 0.0054066,
        "meta_inclination": 86.4102,
        "meta_ra_of_asc_node": 41.6259,
        "meta_arg_of_pericenter": 100.1933,
        "meta_mean_anomaly": 271.9985,
        "meta_ephemeris_type": 0,
        "meta_classification_type": "U",
        "meta_norad_cat_id": 33862,
        "meta_element_set_no": 999,
        "meta_rev_at_epoch": 88687,
        "meta_bstar": 0.0018521,
        "meta_mean_motion_dot": 0.00011186,
        "meta_mean_motion_ddot": 0,
        "tle_line1": "1 33862U 97051AF  25337.44956402  .00011186  00000+0  18521-2 0  9993",
        "tle_line2": "2 33862  86.4102  41.6259 0054066 100.1933 271.9985 14.69215841886879"
      },
      "geometry": {
        "type": "Point",
        "coordinates": [
          -141.28193498897195,
          37.35890965434482
        ]
      }
    },
    {
      "type": "Feature",
      "properties": {
        "norad_id": 33866,
        "name": "IRIDIUM 33 DEB",
        "group": "iridium-33-debris",
        "lat": -2.455302613304227,
        "lon": -83.03001567736828,
        "alt_km": 730.0578537599922,
        "timestamp": "2025-12-03T19:33:07.362177+00:00",
        "meta_object_name": "IRIDIUM 33 DEB",
        "meta_object_id": "1997-051AK",
        "meta_epoch": "2025-12-03T08:50:48.901920",
        "meta_mean_motion": 14.25219287,
        "meta_eccentricity": 0.0113711,
        "meta_inclination": 86.2997,
        "meta_ra_of_asc_node": 96.9997,
        "meta_arg_of_pericenter": 191.2792,
        "meta_mean_anomaly": 224.088,
        "meta_ephemeris_type": 0,
        "meta_classification_type": "U",
        "meta_norad_cat_id": 33866,
        "meta_element_set_no": 999,
        "meta_rev_at_epoch": 86677,
        "meta_bstar": 0.001023,
        "meta_mean_motion_dot": 2.59e-05,
        "meta_mean_motion_ddot": 0,
        "tle_line1": "1 33866U 97051AK  25337.36862155  .00002590  00000+0  10230-2 0  9997",
        "tle_line2": "2 33866  86.2997  96.9997 0113711 191.2792 224.0880 14.25219287866772"
      },
      "geometry": {
        "type": "Point",
        "coordinates": [
          -83.03001567736828,
          -2.455302613304227
        ]
      }
    },
    {
      "type": "Feature",
      "properties": {
        "norad_id": 33867,
        "name": "IRIDIUM 33 DEB",
        "group": "iridium-33-debris",
        "lat": -17.4962200153006,
        "lon": 175.84341864898124,
        "alt_km": 411.07191498021893,
        "timestamp": "2025-12-03T19:33:07.362192+00:00",
        "meta_object_name": "IRIDIUM 33 DEB",
        "meta_object_id": "1997-051AL",
        "meta_epoch": "2025-12-03T07:53:15.165600",
        "meta_mean_motion": 15.53727826,
        "meta_eccentricity": 0.0012182,
        "meta_inclination": 86.3627,
        "meta_ra_of_asc_node": 354.9416,
        "meta_arg_of_pericenter": 99.5397,
        "meta_mean_anomaly": 260.7241,
        "meta_ephemeris_type": 0,
        "meta_classification_type": "U",
        "meta_norad_cat_id": 33867,
        "meta_element_set_no": 999,
        "meta_rev_at_epoch": 89364,
        "meta_bstar": 0.0073072,
        "meta_mean_motion_dot": 0.00497539,
        "meta_mean_motion_ddot": 0,
        "tle_line1": "1 33867U 97051AL  25337.32864775  .00497539  00000+0  73072-2 0  9998",
        "tle_line2": "2 33867  86.3627 354.9416 0012182  99.5397 260.7241 15.53727826893647"
      },
      "geometry": {
        "type": "Point",
        "coordinates": [
          175.84341864898124,
          -17.4962200153006
        ]
      }
    },
    {
      "type": "Feature",
      "properties": {
        "norad_id": 33870,
        "name": "IRIDIUM 33 DEB",
        "group": "iridium-33-debris",
        "lat": -18.33113763875282,
        "lon": 60.882770868808414,
        "alt_km": 754.7148723894452,
        "timestamp": "2025-12-03T19:33:07.362202+00:00",
        "meta_object_name": "IRIDIUM 33 DEB",
        "meta_object_id": "1997-051AP",
        "meta_epoch": "2025-12-03T04:49:08.389056",
        "meta_mean_motion": 14.45760529,
        "meta_eccentricity": 0.00204752,
        "meta_inclination": 86.3757,
        "meta_ra_of_asc_node": 62.349,
        "meta_arg_of_pericenter": 209.9044,
        "meta_mean_anomaly": 178.6407,
        "meta_ephemeris_type": 0,
        "meta_classification_type": "U",
        "meta_norad_cat_id": 33870,
        "meta_element_set_no": 999,
        "meta_rev_at_epoch": 87999,
        "meta_bstar": 0.0011974106,
        "meta_mean_motion_dot": 4.273e-05,
        "meta_mean_motion_ddot": 0,
        "tle_line1": "1 33870U 97051AP  25337.20079154  .00004273  00000+0  11974-2 0  9990",
        "tle_line2": "2 33870  86.3757  62.3490 0020475 209.9044 178.6407 14.45760529879997"
      },
      "geometry": {
        "type": "Point",
        "coordinates": [
          60.882770868808414,
          -18.33113763875282
        ]
      }
    },
    {
      "type": "Feature",
      "properties": {
        "norad_id": 33881,
        "name": "IRIDIUM 33 DEB",
        "group": "iridium-33-debris",
        "lat": -48.975760345349315,
        "lon": -65.21591689466736,
        "alt_km": 672.9393429949796,
        "timestamp": "2025-12-03T19:33:07.362213+00:00",
        "meta_object_name": "IRIDIUM 33 DEB",
        "meta_object_id": "1997-051BA",
        "meta_epoch": "2025-12-03T08:52:49.327968",
        "meta_mean_motion": 14.56290168,
        "meta_eccentricity": 0.0061157,
        "meta_inclination": 86.3865,
        "meta_ra_of_asc_node": 110.812,
        "meta_arg_of_pericenter": 205.0667,
        "meta_mean_anomaly": 213.9917,
        "meta_ephemeris_type": 0,
        "meta_classification_type": "U",
        "meta_norad_cat_id": 33881,
        "meta_element_set_no": 999,
        "meta_rev_at_epoch": 87364,
        "meta_bstar": 0.002603,
        "meta_mean_motion_dot": 0.00011848,
        "meta_mean_motion_ddot": 0,
        "tle_line1": "1 33881U 97051BA  25337.37001537  .00011848  00000+0  26030-2 0  9995",
        "tle_line2": "2 33881  86.3865 110.8120 0061157 205.0667 213.9917 14.56290168873642"
      },
      "geometry": {
        "type": "Point",
        "coordinates": [
          -65.21591689466736,
          -48.975760345349315
        ]
      }
    },
    {
      "type": "Feature",
      "properties": {
        "norad_id": 33884,
        "name": "IRIDIUM 33 DEB",
        "group": "iridium-33-debris",
        "lat": -46.30857390159642,
        "lon": -162.34283665381676,
        "alt_km": 650.0852449723016,
        "timestamp": "2025-12-03T19:33:07.362223+00:00",
        "meta_object_name": "IRIDIUM 33 DEB",
        "meta_object_id": "1997-051BD",
        "meta_epoch": "2025-12-03T02:24:03.793824",
        "meta_mean_motion": 14.77130142,
        "meta_eccentricity": 0.00106894,
        "meta_inclination": 86.3701,
        "meta_ra_of_asc_node": 14.1694,
        "meta_arg_of_pericenter": 359.2537,
        "meta_mean_anomaly": 29.5165,
        "meta_ephemeris_type": 0,
        "meta_classification_type": "U",
        "meta_norad_cat_id": 33884,
        "meta_element_set_no": 999,
        "meta_rev_at_epoch": 88705,
        "meta_bstar": 0.0017255958,
        "meta_mean_motion_dot": 0.0001224,
        "meta_mean_motion_ddot": 0,
        "tle_line1": "1 33884U 97051BD  25337.10004391  .00012240  00000+0  17256-2 0  9997",
        "tle_line2": "2 33884  86.3701  14.1694 0010689 359.2537  29.5165 14.77130142887052"
      },
      "geometry": {
        "type": "Point",
        "coordinates": [
          -162.34283665381676,
          -46.30857390159642
        ]
      }
    }
  ]
}